ONEWEB-0650             
1 55813U 23029T   24024.75845497  .00000065  00000+0  13036-3 0  9995
2 55813  87.9206 119.0375 0002125  97.3012 262.8363 13.19725755 43567
ONEWEB-0652             
1 55814U 23029U   24024.72836695  .00000108  00000+0  25790-3 0  9991
2 55814  87.8970 103.7735 0001638 107.7058 252.4251 13.14503371 44485
ONEWEB-0653             
1 55815U 23029V   24024.71249715 -.00000148  00000+0 -43252-3 0  9991
2 55815  87.8972 103.7527 0001772 115.2510 244.8804 13.14505083 44518
ONEWEB-0654             
1 55816U 23029W   24024.70774860 -.00000204  00000+0 -58381-3 0  9997
2 55816  87.8971 103.7679 0001383 119.9493 240.1774 13.14503585 44537
ONEWEB-0656             
1 55817U 23029X   24024.74344996  .00000163  00000+0  36910-3 0  9991
2 55817  87.9172  88.4660 0001155  85.4665 274.6601 13.20772846 45724
ONEWEB-0657             
1 55818U 23029Y   24024.75369998 -.00002689  00000+0 -67499-2 0  9994
2 55818  87.9205 119.0441 0001450  72.7215 287.4076 13.19738120 43572
ONEWEB-0658             
1 55819U 23029Z   24024.82479790  .00000053  00000+0  10008-3 0  9991
2 55819  87.9205 118.9665 0002409  97.6257 262.5149 13.19724264 43597
ONEWEB-0660             
1 55820U 23029AA  24024.76166618 -.00000036  00000+0 -13047-3 0  9997
2 55820  87.8972 103.7331 0002290 111.0460 249.0915 13.14503055 44529
